PERSEUS-M1              
1 40039U 14033AF  26131.84029796  .00001141  00000+0  10833-3 0  9999
2 40039  97.9625  75.3841 0012866  61.8299 298.4219 14.95505470645204
POLYITAN-1              
1 40042U 14033AJ  26131.81570260  .00011364  00000+0  37047-3 0  9991
2 40042  98.0977 154.6719 0005360 271.6607  88.4019 15.31992909648026
TIGRISAT                
1 40043U 14033AK  26131.66431071  .00001467  00000+0  17477-3 0  9999
2 40043  97.7789 282.5267 0049174 192.8879 167.1083 14.85003353640201
AEROCUBE 6A             
1 40045U 14033AM  26131.41597342  .00004858  00000+0  41286-3 0  9990
2 40045  97.7212 298.7743 0040204 136.9009 223.5373 14.97694773641116
AEROCUBE 6B             
1 40046U 14033AN  26131.72067844  .00003961  00000+0  32606-3 0  9994
2 40046  97.7174 298.7932 0037828 129.3695 231.0889 14.99120134641291
CANX-4                  
1 40055U 14034C   26131.20080173  .00000545  00000+0  77320-4 0  9996
2 40055  98.3173   5.1488 0013818 126.4174 233.8314 14.81195001639056
CANX-5                  
1 40056U 14034D   26131.19966159  .00000537  00000+0  76211-4 0  9991
2 40056  98.3174   5.1889 0013811 126.6488 233.5995 14.81211971629861
UKUBE-1                 
1 40074U 14037F   26131.86590929  .00005108  00000+0  29406-3 0  9998
2 40074  98.4248 131.3414 0000482  53.3955 306.7318 15.12964107643066
BRITE-PL2 (HEWELIUSZ)   
1 40119U 14049B   26131.88409028  .00000790  00000+0  78661-4 0  9992
2 40119  97.9056 243.6164 0013036 226.1248 133.8896 14.94455446636028
AEROCUBE 5C             
1 40965U 15058B   26131.95969141  .00001964  00000+0  18295-3 0  9997
2 40965  64.7691  15.2741 0129773  77.5161 284.0435 14.91244230360257
AEROCUBE 7              
1 40966U 15058C   26131.85797293  .00002804  00000+0  23343-3 0  9998
2 40966  64.7640 358.5822 0119545  76.2497 285.1890 14.95438837360528
FOX-1A (AO-85)          
1 40967U 15058D   26131.86125538  .00002063  00000+0  19423-3 0  9998
2 40967  64.7767  31.8535 0128941  70.8323 290.6693 14.90751680108159
SINOD-D 1               
1 40968U 15058E   26131.90712050  .00002924  00000+0  24279-3 0  9996
2 40968  64.7770  12.5020 0117416  67.6144 293.7362 14.95617289111230
SNAP-3 ALICE            
1 40970U 15058G   26131.54256510  .00053534  00000+0  82454-3 0  9995
2 40970  64.7531 229.8456 0032701  31.6012 328.7085 15.53252455111182
LMRST-SAT               
1 40971U 15058H   26131.87449514  .00002008  00000+0  19055-3 0  9997
2 40971  64.7774  28.0824 0130714  72.8547 288.6829 14.90377034108146
SNAP-3 EDDIE            
1 40972U 15058J   26131.94648545  .00056012  00000+0  82496-3 0  9994
2 40972  64.7451 219.4469 0033183  34.9650 325.3663 15.54440501113384
PROPCUBE 3              
1 40973U 15058K   26131.93179397  .00002466  00000+0  21337-3 0  9999
2 40973  64.7702   5.7897 0122914  74.3531 287.1105 14.94005892109386
BISONSAT                
1 40974U 15058L   26131.81230443  .00007877  00000+0  39334-3 0  9994
2 40974  64.7596 291.1714 0078693  63.0474 297.8660 15.15447122110108
SNAP-3 JIMI             
1 40975U 15058M   26131.90457193  .00003875  00000+0  27516-3 0  9991
2 40975  64.7662 334.5350 0104890  70.4061 290.8344 15.01921190108773
PROPCUBE 1 (FLORA)      
1 40976U 15058N   26131.86319497  .00001884  00000+0  18667-3 0  9996
2 40976  64.7757  47.7940 0129531  75.1378 286.4038 14.89011162110856
SINOD-D 3               
1 40977U 15058P   26131.89026186  .00002730  00000+0  23895-3 0  9990
2 40977  64.7741  29.1377 0118026  72.6379 288.7603 14.93733245109330
HORYU-4                 
1 41340U 16012D   26131.66552011  .00123350  00000+0  69385-3 0  9998
2 41340  30.9894 342.9931 0005642  13.7022 346.3788 15.77715483565014
RAVAN                   
1 41849U 16067B   26131.95814663  .00030202  00000+0  51374-3 0  9990
2 41849  97.9942  17.4424 0007204 122.5528 237.6419 15.51357025522070
CELTEE 1                
1 41850U 16067C   26131.85624392  .00003053  00000+0  14827-3 0  9995
2 41850  98.0724 355.9474 0001863  60.8148 299.3271 15.19317518520362
OPTICUBE 04             
1 41851U 16067D   26131.82119709  .00001168  00000+0  77184-4 0  9995
2 41851  98.0739 342.2046 0014407 238.1687 121.8139 15.09501826519680
AEROCUBE 8D             
1 41852U 16067E   26131.19284631  .00004501  00000+0  18991-3 0  9997
2 41852  98.0737 358.5566 0001891 257.1576 102.9448 15.23875407520430
AEROCUBE 8C             
1 41853U 16067F   26131.88024710  .00004449  00000+0  18636-3 0  9991
2 41853  98.0607 356.5715 0005420 170.6097 189.5241 15.24119216520533
CORVUS BC2              
1 42846U 17042X   26131.72167976  .00002327  00000+0  16328-3 0  9992
2 42846  97.4039 294.5038 0011930 232.5956 127.4186 15.06060833481571
CORVUS BC1              
1 42847U 17042Y   26131.72043211  .00002274  00000+0  15896-3 0  9998
2 42847  97.4072 295.2927 0011229 206.2576 153.8084 15.06232832481605
MAKERSAT 0              
1 43016U 17073D   26131.65209786  .00015937  00000+0  44657-3 0  9991
2 43016  97.4679  13.9210 0111940  43.8144 317.1910 15.30531034460876
